{"type": "FeatureCollection", "features": [ {"type": "Feature", "properties": {"norad_id": 66621, "name": "STARLINK-35847", "group": "last-30-days", "lat": 30.257456200424336, "lon": -160.74057093224798, "alt_km": 414.5583298354504, "timestamp": "2025-12-15T14:57:56.621214+00:00", "meta": {"OBJECT_NAME": "STARLINK-35847", "OBJECT_ID": "2025-271E", "EPOCH": "2025-12-14T20:00:06.000192", "MEAN_MOTION": 15.49282904, "ECCENTRICITY": 6.441e-05, "INCLINATION": 53.1594, "RA_OF_ASC_NODE": 177.1029, "ARG_OF_PERICENTER": 65.5878, "MEAN_ANOMALY": 243.8146, "EPHEMERIS_TYPE": 0, "CLASSIFICATION_TYPE": "U", "NORAD_CAT_ID": 66621, "ELEMENT_SET_NO": 999, "REV_AT_EPOCH": 458, "BSTAR": 0.0007806442, "MEAN_MOTION_DOT": 0.00043168, "MEAN_MOTION_DDOT": 0}, "tle": {"line1": "1 66621U 25271E   25348.83340278  .00043168  00000+0  78064-3 0  9994", "line2": "2 66621  53.1594 177.1029 0000644  65.5878 243.8146 15.49282904  4589"}}, "geometry": {"type": "Point", "coordinates": [-160.74057093224798, 30.257456200424336]}}, {"type": "Feature", "properties": {"norad_id": 66622, "name": "STARLINK-35950", "group": "last-30-days", "lat": -6.615083255704873, "lon": 168.43599514533213, "alt_km": 420.3955728654819, "timestamp": "2025-12-15T14:57:56.621224+00:00", "meta": {"OBJECT_NAME": "STARLINK-35950", "OBJECT_ID": "2025-271F", "EPOCH": "2025-12-14T20:00:06.000192", "MEAN_MOTION": 15.49283296, "ECCENTRICITY": 8.021e-05, "INCLINATION": 53.1599, "RA_OF_ASC_NODE": 177.2032, "ARG_OF_PERICENTER": 83.5218, "MEAN_ANOMALY": 178.6049, "EPHEMERIS_TYPE": 0, "CLASSIFICATION_TYPE": "U", "NORAD_CAT_ID": 66622, "ELEMENT_SET_NO": 999, "REV_AT_EPOCH": 458, "BSTAR": 0.00074410452, "MEAN_MOTION_DOT": 0.00041116, "MEAN_MOTION_DDOT": 0}, "tle": {"line1": "1 66622U 25271F   25348.83340278  .00041116  00000+0  74410-3 0  9997", "line2": "2 66622  53.1599 177.2032 0000802  83.5218 178.6049 15.49283296  4586"}}, "geometry": {"type": "Point", "coordinates": [168.43599514533213, -6.615083255704873]}}, {"type": "Feature", "properties": {"norad_id": 66623, "name": "STARLINK-35920", "group": "last-30-days", "lat": -6.486683481147494, "lon": 168.53342040722617, "alt_km": 428.8654654282009, "timestamp": "2025-12-15T14:57:56.621233+00:00", "meta": {"OBJECT_NAME": "STARLINK-35920", "OBJECT_ID": "2025-271G", "EPOCH": "2025-12-14T20:00:06.000192", "MEAN_MOTION": 15.49672572, "ECCENTRICITY": 0.00015178, "INCLINATION": 53.16, "RA_OF_ASC_NODE": 177.1951, "ARG_OF_PERICENTER": 92.4677, "MEAN_ANOMALY": 173.441, "EPHEMERIS_TYPE": 0, "CLASSIFICATION_TYPE": "U", "NORAD_CAT_ID": 66623, "ELEMENT_SET_NO": 999, "REV_AT_EPOCH": 458, "BSTAR": -0.037903462, "MEAN_MOTION_DOT": -0.01917173, "MEAN_MOTION_DDOT": 0}, "tle": {"line1": "1 66623U 25271G   25348.83340278 -.01917173  00000+0 -37903-1 0  9990", "line2": "2 66623  53.1600 177.1951 0001517  92.4677 173.4410 15.49672572  4585"}}, "geometry": {"type": "Point", "coordinates": [168.53342040722617, -6.486683481147494]}}, {"type": "Feature", "properties": {"norad_id": 66624, "name": "STARLINK-35927", "group": "last-30-days", "lat": -5.090756004261058, "lon": 169.59064359093347, "alt_km": 420.1393568802114, "timestamp": "2025-12-15T14:57:56.621242+00:00", "meta": {"OBJECT_NAME": "STARLINK-35927", "OBJECT_ID": "2025-271H", "EPOCH": "2025-12-14T20:00:06.000192", "MEAN_MOTION": 15.49278055, "ECCENTRICITY": 8.493e-05, "INCLINATION": 53.1598, "RA_OF_ASC_NODE": 177.1995, "ARG_OF_PERICENTER": 77.1082, "MEAN_ANOMALY": 186.9403, "EPHEMERIS_TYPE": 0, "CLASSIFICATION_TYPE": "U", "NORAD_CAT_ID": 66624, "ELEMENT_SET_NO": 999, "REV_AT_EPOCH": 458, "BSTAR": 0.00078102822, "MEAN_MOTION_DOT": 0.00043182, "MEAN_MOTION_DDOT": 0}, "tle": {"line1": "1 66624U 25271H   25348.83340278  .00043182  00000+0  78103-3 0  9997", "line2": "2 66624  53.1598 177.1995 0000849  77.1082 186.9403 15.49278055  4586"}}, "geometry": {"type": "Point", "coordinates": [169.59064359093347, -5.090756004261058]}}, {"type": "Feature", "properties": {"norad_id": 66625, "name": "STARLINK-35929", "group": "last-30-days", "lat": -2.024374380218428, "lon": 171.8926164318559, "alt_km": 419.8231871617663, "timestamp": "2025-12-15T14:57:56.621252+00:00", "meta": {"OBJECT_NAME": "STARLINK-35929", "OBJECT_ID": "2025-271J", "EPOCH": "2025-12-14T20:00:06.000192", "MEAN_MOTION": 15.49281749, "ECCENTRICITY": 0.00011578, "INCLINATION": 53.16, "RA_OF_ASC_NODE": 177.1904, "ARG_OF_PERICENTER": 87.0595, "MEAN_ANOMALY": 180.8198, "EPHEMERIS_TYPE": 0, "CLASSIFICATION_TYPE": "U", "NORAD_CAT_ID": 66625, "ELEMENT_SET_NO": 999, "REV_AT_EPOCH": 458, "BSTAR": 0.00077398836, "MEAN_MOTION_DOT": 0.00042792, "MEAN_MOTION_DDOT": 0}, "tle": {"line1": "1 66625U 25271J   25348.83340278  .00042792  00000+0  77399-3 0  9990", "line2": "2 66625  53.1600 177.1904 0001157  87.0595 180.8198 15.49281749  4581"}}, "geometry": {"type": "Point", "coordinates": [171.8926164318559, -2.024374380218428]}}, {"type": "Feature", "properties": {"norad_id": 66626, "name": "STARLINK-35902", "group": "last-30-days", "lat": -0.5308507030559774, "lon": 173.00972442338116, "alt_km": 419.8035384225186, "timestamp": "2025-12-15T14:57:56.621261+00:00", "meta": {"OBJECT_NAME": "STARLINK-35902", "OBJECT_ID": "2025-271K", "EPOCH": "2025-12-14T20:00:06.000192", "MEAN_MOTION": 15.493068, "ECCENTRICITY": 7.082e-05, "INCLINATION": 53.1598, "RA_OF_ASC_NODE": 177.1869, "ARG_OF_PERICENTER": 88.9271, "MEAN_ANOMALY": 180.8675, "EPHEMERIS_TYPE": 0, "CLASSIFICATION_TYPE": "U", "NORAD_CAT_ID": 66626, "ELEMENT_SET_NO": 999, "REV_AT_EPOCH": 458, "BSTAR": -0.00022517121, "MEAN_MOTION_DOT": -0.00012949, "MEAN_MOTION_DDOT": 0}, "tle": {"line1": "1 66626U 25271K   25348.83340278 -.00012949  00000+0 -22517-3 0  9996", "line2": "2 66626  53.1598 177.1869 0000708  88.9271 180.8675 15.49306800  4586"}}, "geometry": {"type": "Point", "coordinates": [173.00972442338116, -0.5308507030559774]}}, {"type": "Feature", "properties": {"norad_id": 66627, "name": "STARLINK-35904", "group": "last-30-days", "lat": 1.045639042359984, "lon": 174.1874669623054, "alt_km": 419.3383234186904, "timestamp": "2025-12-15T14:57:56.621271+00:00", "meta": {"OBJECT_NAME": "STARLINK-35904", "OBJECT_ID": "2025-271L", "EPOCH": "2025-12-14T20:00:06.000192", "MEAN_MOTION": 15.492856, "ECCENTRICITY": 7.515e-05, "INCLINATION": 53.1597, "RA_OF_ASC_NODE": 177.1827, "ARG_OF_PERICENTER": 81.814, "MEAN_ANOMALY": 189.8944, "EPHEMERIS_TYPE": 0, "CLASSIFICATION_TYPE": "U", "NORAD_CAT_ID": 66627, "ELEMENT_SET_NO": 999, "REV_AT_EPOCH": 442, "BSTAR": 0.00070979709, "MEAN_MOTION_DOT": 0.00039193, "MEAN_MOTION_DDOT": 0}, "tle": {"line1": "1 66627U 25271L   25348.83340278  .00039193  00000+0  70980-3 0  9992", "line2": "2 66627  53.1597 177.1827 0000751  81.8140 189.8944 15.49285600  4420"}}, "geometry": {"type": "Point", "coordinates": [174.1874669623054, 1.045639042359984]}}, {"type": "Feature", "properties": {"norad_id": 66628, "name": "STARLINK-35862", "group": "last-30-days", "lat": 2.5827302612992615, "lon": 175.33733288388083, "alt_km": 419.11676109541986, "timestamp": "2025-12-15T14:57:56.621280+00:00", "meta": {"OBJECT_NAME": "STARLINK-35862", "OBJECT_ID": "2025-271M", "EPOCH": "2025-12-14T20:00:06.000192", "MEAN_MOTION": 15.49284969, "ECCENTRICITY": 7.642e-05, "INCLINATION": 53.1598, "RA_OF_ASC_NODE": 177.1786, "ARG_OF_PERICENTER": 83.2997, "MEAN_ANOMALY": 190.3259, "EPHEMERIS_TYPE": 0, "CLASSIFICATION_TYPE": "U", "NORAD_CAT_ID": 66628, "ELEMENT_SET_NO": 999, "REV_AT_EPOCH": 458, "BSTAR": 0.00075784154, "MEAN_MOTION_DOT": 0.0004189, "MEAN_MOTION_DDOT": 0}, "tle": {"line1": "1 66628U 25271M   25348.83340278  .00041890  00000+0  75784-3 0  9997", "line2": "2 66628  53.1598 177.1786 0000764  83.2997 190.3259 15.49284969  4586"}}, "geometry": {"type": "Point", "coordinates": [175.33733288388083, 2.5827302612992615]}}, {"type": "Feature", "properties": {"norad_id": 66629, "name": "STARLINK-35956", "group": "last-30-days", "lat": 4.113132131604099, "lon": 176.48644981550044, "alt_km": 418.9280893943005, "timestamp": "2025-12-15T14:57:56.621289+00:00", "meta": {"OBJECT_NAME": "STARLINK-35956", "OBJECT_ID": "2025-271N", "EPOCH": "2025-12-14T20:00:06.000192", "MEAN_MOTION": 15.49284193, "ECCENTRICITY": 7.479e-05, "INCLINATION": 53.1597, "RA_OF_ASC_NODE": 177.1752, "ARG_OF_PERICENTER": 86.8021, "MEAN_ANOMALY": 188.7411, "EPHEMERIS_TYPE": 0, "CLASSIFICATION_TYPE": "U", "NORAD_CAT_ID": 66629, "ELEMENT_SET_NO": 999, "REV_AT_EPOCH": 458, "BSTAR": 0.0007460094, "MEAN_MOTION_DOT": 0.00041224, "MEAN_MOTION_DDOT": 0}, "tle": {"line1": "1 66629U 25271N   25348.83340278  .00041224  00000+0  74601-3 0  9996", "line2": "2 66629  53.1597 177.1752 0000747  86.8021 188.7411 15.49284193  4587"}}, "geometry": {"type": "Point", "coordinates": [176.48644981550044, 4.113132131604099]}}, {"type": "Feature", "properties": {"norad_id": 66630, "name": "STARLINK-35949", "group": "last-30-days", "lat": 5.563746940506801, "lon": 177.57915184586832, "alt_km": 418.5996573539978, "timestamp": "2025-12-15T14:57:56.621301+00:00", "meta": {"OBJECT_NAME": "STARLINK-35949", "OBJECT_ID": "2025-271P", "EPOCH": "2025-12-14T20:00:06.000192", "MEAN_MOTION": 15.49297212, "ECCENTRICITY": 0.0001061, "INCLINATION": 53.1599, "RA_OF_ASC_NODE": 177.1703, "ARG_OF_PERICENTER": 80.0098, "MEAN_ANOMALY": 197.3348, "EPHEMERIS_TYPE": 0, "CLASSIFICATION_TYPE": "U", "NORAD_CAT_ID": 66630, "ELEMENT_SET_NO": 999, "REV_AT_EPOCH": 458, "BSTAR": 0.00059342032, "MEAN_MOTION_DOT": 0.0003268, "MEAN_MOTION_DDOT": 0}, "tle": {"line1": "1 66630U 25271P   25348.83340278  .00032680  00000+0  59342-3 0  9999", "line2": "2 66630  53.1599 177.1703 0001061  80.0098 197.3348 15.49297212  4588"}}, "geometry": {"type": "Point", "coordinates": [177.57915184586832, 5.563746940506801]}}]}